NORAD_CAT_ID,OBJECT_NAME,OBJECT_TYPE,EPOCH,MEAN_MOTION,ECCENTRICITY,INCLINATION,RA_OF_ASC_NODE,ARG_OF_PERICENTER,MEAN_ANOMALY,BSTAR,MEAN_MOTION_DOT,MEAN_MOTION_DDOT,TLE_LINE0,TLE_LINE1,TLE_LINE2,SEMIMAJOR_AXIS,PERIOD,APOGEE,PERIGEE,DECAYED
53934.0,STARLINK-4775,PAYLOAD,2024-06-07 09:45:54,15.08831591,0.0001037,53.2172,293.511,81.6339,278.4771,0.00013422,1.849e-05,0.0,0 STARLINK-4775,1 53934U 22119BA  24159.40688571  .00001849  00000-0  13422-3 0  9996,2 53934  53.2172 293.5110 0001037  81.6339 278.4771 15.08831591 95391,6917.906,95.438,540.488,539.054,0.0
53934.0,STARLINK-4775,PAYLOAD,2024-06-07 16:07:28,15.08828351,9.79e-05,53.22,292.3232,60.8278,299.2812,7.1953e-05,8.57e-06,0.0,0 STARLINK-4775,1 53934U 22119BA  24159.67185316  .00000857  00000-0  71953-4 0  9996,2 53934  53.2200 292.3232 0000979  60.8278 299.2812 15.08828351 94992,6917.916,95.438,540.458,539.104,0.0
53934.0,STARLINK-4775,PAYLOAD,2024-06-09 01:30:32,15.08864702,0.000103,53.2179,286.0778,71.6822,288.4282,-0.00019091,-3.327e-05,0.0,0 STARLINK-4775,1 53934U 22119BA  24161.06287547 -.00003327  00000-0 -19091-3 0  9992,2 53934  53.2179 286.0778 0001030  71.6822 288.4282 15.08864702 95202,6917.805,95.436,540.382,538.957,0.0
53934.0,STARLINK-4775,PAYLOAD,2024-06-09 07:52:06,15.0883147,0.0002115,53.2177,284.8886,78.5855,281.5374,-1.7737e-05,-5.7e-06,0.0,0 STARLINK-4775,1 53934U 22119BA  24161.32785401 -.00000570  00000-0 -17737-4 0  9996,2 53934  53.2177 284.8886 0002115  78.5855 281.5374 15.08831470 95249,6917.906,95.438,541.235,538.308,0.0
53934.0,STARLINK-4775,PAYLOAD,2024-06-10 12:29:02,15.08842804,0.0002009,53.2172,279.5362,84.3266,275.7955,7.5708e-05,9.17e-06,0.0,0 STARLINK-4775,1 53934U 22119BA  24162.52016895  .00000917  00000-0  75708-4 0  9998,2 53934  53.2172 279.5362 0002009  84.3266 275.7955 15.08842804 95420,6917.872,95.437,541.127,538.347,0.0
53934.0,STARLINK-4775,PAYLOAD,2024-06-10 14:04:25,15.08830613,0.0001365,53.211,279.2397,88.2083,271.9066,0.00013682,1.89e-05,0.0,0 STARLINK-4775,1 53934U 22119BA  24162.58640809  .00001890  00000-0  13682-3 0  9995,2 53934  53.2110 279.2397 0001365  88.2083 271.9066 15.08830613 95876,6917.909,95.438,540.718,538.83,0.0
53934.0,STARLINK-4775,PAYLOAD,2024-06-10 15:39:48,15.08796617,0.0001363,53.2168,278.9381,103.9916,256.1228,0.00060505,9.343e-05,0.0,0 STARLINK-4775,1 53934U 22119BA  24162.65264123  .00009343  00000-0  60505-3 0  9991,2 53934  53.2168 278.9381 0001363 103.9916 256.1228 15.08796617 95449,6918.013,95.44,540.821,538.935,0.0
53934.0,STARLINK-4775,PAYLOAD,2024-06-11 01:12:06,15.08816106,0.0001372,53.2175,277.1574,98.1565,261.9583,0.00061587,9.521e-05,0.0,0 STARLINK-4775,1 53934U 22119BA  24163.05007914  .00009521  00000-0  61587-3 0  9998,2 53934  53.2175 277.1574 0001372  98.1565 261.9583 15.08816106 95508,6917.953,95.439,540.768,538.869,0.0
53934.0,STARLINK-4775,PAYLOAD,2024-06-11 13:55:12,15.08833576,0.0001663,53.214,274.7788,95.3462,264.772,9.6217e-05,1.243e-05,0.0,0 STARLINK-4775,1 53934U 22119BA  24163.58001155  .00001243  00000-0  96217-4 0  9999,2 53934  53.2140 274.7788 0001663  95.3462 264.7720 15.08833576 96020,6917.9,95.438,540.915,538.615,0.0
53934.0,STARLINK-4775,PAYLOAD,2024-06-12 02:38:17,15.0884717,0.0001259,53.2158,272.3986,100.5685,259.5449,0.00010911,1.449e-05,0.0,0 STARLINK-4775,1 53934U 22119BA  24164.10992119  .00001449  00000-0  10911-3 0  9991,2 53934  53.2158 272.3986 0001259 100.5685 259.5449 15.08847170 95664,6917.858,95.437,540.594,538.853,0.0
53934.0,STARLINK-4775,PAYLOAD,2024-06-12 12:10:37,15.08827804,0.0001282,53.2172,270.6144,95.5562,264.5577,-4.9157e-05,-1.07e-05,0.0,0 STARLINK-4775,1 53934U 22119BA  24164.50737975 -.00001070  00000-0 -49157-4 0  9999,2 53934  53.2172 270.6144 0001282  95.5562 264.5577 15.08827804 95727,6917.918,95.438,540.67,538.896,0.0
53934.0,STARLINK-4775,PAYLOAD,2024-06-12 13:46:00,15.08829155,0.0001278,53.2169,270.3182,88.637,271.4768,-3.5604e-05,-8.54e-06,0.0,0 STARLINK-4775,1 53934U 22119BA  24164.57361985 -.00000854  00000-0 -35604-4 0  9991,2 53934  53.2169 270.3182 0001278  88.6370 271.4768 15.08829155 96177,6917.914,95.438,540.663,538.894,0.0
53934.0,STARLINK-4775,PAYLOAD,2024-06-13 13:36:47,15.08836289,0.0001258,53.2178,265.8588,87.1752,272.9384,0.00012575,1.714e-05,0.0,0 STARLINK-4775,1 53934U 22119BA  24165.56721201  .00001714  00000-0  12575-3 0  9997,2 53934  53.2178 265.8588 0001258  87.1752 272.9384 15.08836289 95885,6917.892,95.438,540.627,538.886,0.0
53934.0,STARLINK-4775,PAYLOAD,2024-06-14 13:27:34,15.08829033,0.0001194,53.2176,261.3987,87.6602,272.4527,0.00015054,2.108e-05,0.0,0 STARLINK-4775,1 53934U 22119BA  24166.56081920  .00002108  00000-0  15054-3 0  9998,2 53934  53.2176 261.3987 0001194  87.6602 272.4527 15.08829033 96474,6917.914,95.438,540.605,538.953,0.0
53934.0,STARLINK-4775,PAYLOAD,2024-06-15 13:18:21,15.08833926,0.0001404,53.2176,256.9409,104.6819,255.4329,-5.8292e-05,-1.215e-05,0.0,0 STARLINK-4775,1 53934U 22119BA  24167.55441575 -.00001215  00000-0 -58292-4 0  9996,2 53934  53.2176 256.9409 0001404 104.6819 255.4329 15.08833926 96621,6917.899,95.438,540.735,538.793,0.0
53934.0,STARLINK-4775,PAYLOAD,2024-06-16 13:09:08,15.08841081,0.000149,53.2168,252.4769,88.437,271.6793,6.0578e-05,6.76e-06,0.0,0 STARLINK-4775,1 53934U 22119BA  24168.54801203  .00000676  00000-0  60578-4 0  9992,2 53934  53.2168 252.4769 0001490  88.4370 271.6793 15.08841081 96770,6917.877,95.437,540.773,538.711,0.0
53934.0,STARLINK-4775,PAYLOAD,2024-06-16 22:41:26,15.08850067,0.0001285,53.2162,250.6927,89.7986,270.3153,0.00013354,1.839e-05,0.0,0 STARLINK-4775,1 53934U 22119BA  24168.94544557  .00001839  00000-0  13354-3 0  9993,2 53934  53.2162 250.6927 0001285  89.7986 270.3153 15.08850067 96836,6917.85,95.437,540.604,538.826,0.0
53934.0,STARLINK-4775,PAYLOAD,2024-06-17 22:32:14,15.08840308,0.0001136,53.2154,246.231,98.1554,261.9567,9.6202e-05,1.244e-05,0.0,0 STARLINK-4775,1 53934U 22119BA  24169.93905333  .00001244  00000-0  96202-4 0  9990,2 53934  53.2154 246.2310 0001136  98.1554 261.9567 15.08840308 96982,6917.879,95.438,540.53,538.959,0.0
53934.0,STARLINK-4775,PAYLOAD,2024-06-18 11:15:19,15.08845198,0.0001175,53.2149,243.8526,98.0574,262.0551,0.00058697,9.067e-05,0.0,0 STARLINK-4775,1 53934U 22119BA  24170.46897539  .00009067  00000-0  58697-3 0  9994,2 53934  53.2149 243.8526 0001175  98.0574 262.0551 15.08845198 97069,6917.865,95.437,540.542,538.917,0.0
53934.0,STARLINK-4775,PAYLOAD,2024-06-18 22:23:01,15.08854641,0.0001185,53.2147,241.7707,96.9389,263.1738,0.00064096,9.932e-05,0.0,0 STARLINK-4775,1 53934U 22119BA  24170.93265209  .00009932  00000-0  64096-3 0  9990,2 53934  53.2147 241.7707 0001185  96.9389 263.1738 15.08854641 97137,6917.836,95.437,540.52,538.881,0.0
53934.0,STARLINK-4775,PAYLOAD,2024-06-19 11:06:06,15.08838034,0.0001341,53.2149,239.392,95.1262,264.9883,0.00015527,2.184e-05,0.0,0 STARLINK-4775,1 53934U 22119BA  24171.46257719  .00002184  00000-0  15527-3 0  9993,2 53934  53.2149 239.3920 0001341  95.1262 264.9883 15.08838034 96771,6917.886,95.438,540.679,538.824,0.0
53934.0,STARLINK-4775,PAYLOAD,2024-06-20 10:56:53,15.08839348,0.0001338,53.2158,234.9309,96.8173,263.2972,9.0994e-06,-1.43e-06,0.0,0 STARLINK-4775,1 53934U 22119BA  24172.45617801 -.00000143  00000-0  90994-5 0  9992,2 53934  53.2158 234.9309 0001338  96.8173 263.2972 15.08839348 97364,6917.882,95.438,540.673,538.822,0.0
53934.0,STARLINK-4775,PAYLOAD,2024-06-21 04:26:08,15.08839772,0.0001384,53.2156,231.6598,96.1528,263.9622,0.00018161,2.604e-05,0.0,0 STARLINK-4775,1 53934U 22119BA  24173.18481885  .00002604  00000-0  18161-3 0  9991,2 53934  53.2156 231.6598 0001384  96.1528 263.9622 15.08839772 97038,6917.881,95.438,540.704,538.789,0.0
53934.0,STARLINK-4775,PAYLOAD,2024-06-21 10:47:41,15.08836583,0.0001296,53.2154,230.4684,96.9807,263.1332,0.0001026,1.345e-05,0.0,0 STARLINK-4775,1 53934U 22119BA  24173.44978048  .00001345  00000-0  10260-3 0  9995,2 53934  53.2154 230.4684 0001296  96.9807 263.1332 15.08836583 97519,6917.891,95.438,540.652,538.859,0.0
53934.0,STARLINK-4775,PAYLOAD,2024-06-22 09:03:05,15.08838183,0.0001179,53.2157,226.3041,93.9398,266.1729,7.4668e-05,9.01e-06,0.0,0 STARLINK-4775,1 53934U 22119BA  24174.37714243  .00000901  00000-0  74668-4 0  9993,2 53934  53.2157 226.3041 0001179  93.9398 266.1729 15.08838183 97213,6917.886,95.438,540.567,538.935,0.0
53934.0,STARLINK-4775,PAYLOAD,2024-06-23 12:04:38,15.08841347,0.0001186,53.2156,221.2504,94.2909,265.8219,0.00011766,1.585e-05,0.0,0 STARLINK-4775,1 53934U 22119BA  24175.50322040  .00001585  00000-0  11766-3 0  9997,2 53934  53.2156 221.2504 0001186  94.2909 265.8219 15.08841347 97384,6917.876,95.437,540.562,538.921,0.0
53934.0,STARLINK-4775,PAYLOAD,2024-06-24 10:20:02,15.08842922,0.000121,53.2155,217.0885,92.7288,267.3843,0.00012261,1.664e-05,0.0,0 STARLINK-4775,1 53934U 22119BA  24176.43057934  .00001664  00000-0  12261-3 0  9996,2 53934  53.2155 217.0885 0001210  92.7288 267.3843 15.08842922 97963,6917.871,95.437,540.574,538.899,0.0
53934.0,STARLINK-4775,PAYLOAD,2024-06-25 10:10:48,15.08844622,0.0001258,53.2158,212.6284,87.4193,272.6944,7.3547e-05,8.83e-06,0.0,0 STARLINK-4775,1 53934U 22119BA  24177.42417792  .00000883  00000-0  73547-4 0  9995,2 53934  53.2158 212.6284 0001258  87.4193 272.6944 15.08844622 97676,6917.866,95.437,540.602,538.861,0.0
53934.0,STARLINK-4775,PAYLOAD,2024-06-26 08:26:13,15.08839374,0.0001324,53.2157,208.4653,82.2897,277.8246,2.6364e-05,1.32e-06,0.0,0 STARLINK-4775,1 53934U 22119BA  24178.35154234  .00000132  00000-0  26364-4 0  9999,2 53934  53.2157 208.4653 0001324  82.2897 277.8246 15.08839374 97812,6917.882,95.438,540.663,538.831,0.0
53934.0,STARLINK-4775,PAYLOAD,2024-06-27 08:16:59,15.08841956,0.0001308,53.2154,204.0025,108.7965,251.3169,7.4578e-05,8.99e-06,0.0,0 STARLINK-4775,1 53934U 22119BA  24179.34513843  .00000899  00000-0  74578-4 0  9994,2 53934  53.2154 204.0025 0001308 108.7965 251.3169 15.08841956 98402,6917.874,95.437,540.644,538.835,0.0
